[{"id":"0db2cf34-c9e3-4fd2-ac79-58c89e464a41", "number":15, "street":"Saadat abad", "city":"Tehran", "zipcode":"12345 69785", "user_id":"0d2652c3-115c-4fe2-9470-afbd604bb160"},
 {"id":"3871d4d5-c5c8-4348-a034-3d409281f238", "number":57, "street":"Enghelab", "city":"Tehran", "zipcode":"1222 ZY", "user_id":"8829038908w90eqd9de"},
 {"id":"ef669032-1f2c-4795-9765b-4c190b488c04", "number":15, "street":"Saadat abad", "city":"Tehran", "zipcode":"12345 69785", "user_id":"8829038908w90eqd9de"},
 {"id":"f04cac4d-2e28-4ecc-9c38-45a6dcc33096", "number":30, "street":"Yazdan", "city":"Qom", "zipcode":"600530", "user_id":"4a9a0e3c-e017-4249-bfe0-dd14e1b08970"},
 {"id":"fb1e3adc-0882-48ad-abfd-78fa1778cec1", "number":20, "street":"Andishe", "city":"Tehran", "zipcode":"900800", "user_id":"4a9a0e3c-e017-4249-bfe0-dd14e1b08970"},
 {"id":"ppq09e-q651-poqq-iuqyq-765q-iuqwe-111", "number":87, "street":"Bonozh", "city":"Roma", "zipcode":"6543 PONH", "user_id":"82347887d8q78w7d88a8d"},
 {"id":"qweq-w9012lk2-asdpoqwe-q67a6dhjq-dqwoe", "number":43, "street":"Danzigerkade", "city":"Amsterdam", "zipcode":"23422 AB", "user_id":"371231238676e7q6w7e"},
 {"id":"uiqweo-09qe-2oqie-qweiqw-1eqeq", "number":45, "street":"Oktita", "city":"Japan", "zipcode":"98320p", "user_id":"552-po-66271-uyyq7-iiue-iq221"},
 {"id":"uyqe-q7w77e-qeoqko-qo1o231-pqp", "number":7, "street":"Danzigerkade", "city":"Amsterdam", "zipcode":"1234 ABX", "user_id":"371231238676e7q6w7e"}]